SL-14 R/B               
1 20511U 90018B   26166.45870520  .00000320  00000+0  37117-4 0  9996
2 20511  82.5210 131.7232 0017345 126.9928 233.2877 14.82215056937066
HST                     
1 20580U 90037B   26166.12212988  .00005845  00000+0  18362-3 0  9992
2 20580  28.4718  94.6872 0001877 120.6716 239.4066 15.30726834788258
SL-16 R/B               
1 20625U 90046B   26166.25158120  .00000187  00000+0  12113-3 0  9995
2 20625  70.9997  93.0133 0013473 164.6555 195.4979 14.15025889862190
COSMOS 2084             
1 20663U 90055A   26165.93687029  .00001904  00000+0  14330-3 0  9997
2 20663  62.7909   3.7719 0005550 275.4979  84.5489 15.06107862950960
SL-6 R/B(2)             
1 20666U 90055D   26166.52010921  .00001359  00000+0  11099-3 0  9990
2 20666  62.7824 281.0493 0040382   4.8965 355.2521 15.03998297952908
SL-8 R/B                
1 20775U 90078B   26166.45171399  .00017759  00000+0  50005-3 0  9996
2 20775  82.9002 163.2126 0351383  44.3117 318.5661 14.92249020823868
SL-8 R/B                
1 21088U 91006B   26166.56046454  .00000046  00000+0  30573-4 0  9991
2 21088  82.9424  97.2438 0023624 118.8787  53.8409 13.77505741777549
OKEAN-3                 
1 21397U 91039A   26166.27738464  .00002250  00000+0  15503-3 0  9991
2 21397  82.5158 242.2329 0014247   5.2473 354.8900 15.05315163879717
COSMOS 2151             
1 21422U 91042A   26166.52587837  .00001526  00000+0  11900-3 0  9990
2 21422  82.4960 349.2844 0013835  88.9452 271.3357 15.00434020877865
SL-14 R/B               
1 21423U 91042B   26166.39734642  .00000307  00000+0  35840-4 0  9990
2 21423  82.4927 128.5740 0015458 281.3732  78.5745 14.81901450867541
ERS-1                   
1 21574U 91050A   26166.49663108  .00000302  00000+0  11139-3 0  9994
2 21574  98.7798 187.1533 0030711 272.1655  87.6016 14.39517155829803
ARIANE 40 R/B           
1 21610U 91050F   26166.10742919  .00000246  00000+0  85944-4 0  9994
2 21610  98.1876 214.6053 0004176 125.8001 234.3579 14.42955960833043
INTERCOSMOS 25          
1 21819U 91086A   26165.47066083  .00000594  00000+0  11849-3 0  9992
2 21819  82.6052 251.4538 1484112 268.2589  74.8557 12.12192313508414
SL-8 R/B                
1 21876U 92008B   26166.53593161  .00000138  00000+0  12594-3 0  9992
2 21876  82.9263 195.0153 0033729 219.4182 250.4958 13.75976484722874
SL-8 R/B                
1 21938U 92020B   26166.54914137  .00000064  00000+0  50641-4 0  9990
2 21938  82.9306  81.0740 0029832  27.0551 145.9349 13.75548652714583
USA 81                  
1 21949U 92023A   26166.45858735  .00000151  00000+0  48319-4 0  9992
2 21949  85.0076  75.0051 0002766  86.0909 274.0600 14.32397757108785
COSMOS 2219             
1 22219U 92076A   26166.42218133  .00000231  00000+0  14591-3 0  9993
2 22219  71.0577 173.7616 0016516  47.0235 313.2269 14.14097903732192
SL-16 R/B               
1 22220U 92076B   26166.54649950  .00000120  00000+0  83765-4 0  9990
2 22220  71.0004 342.2374 0014623 300.7865 116.1695 14.16871636735694
COSMOS 2221             
1 22236U 92080A   26166.53430097  .00001243  00000+0  10696-3 0  9990
2 22236  82.5031 185.3482 0013144 218.1326 141.8967 14.96529468795420
SL-16 R/B               
1 22285U 92093B   26166.40503413 -.00000305  00000+0 -13177-3 0  9994
2 22285  71.0198 159.1328 0004067 191.5261 168.5769 14.15462072726984
COSMOS 2228             
1 22286U 92094A   26166.48410421  .00001820  00000+0  15327-3 0  9990
2 22286  82.5174 143.6741 0017051 338.3105  21.7393 14.97581103790697
SL-16 R/B               
1 22566U 93016B   26165.96087177  .00000327  00000+0  19243-3 0  9998
2 22566  71.0084  10.8837 0010355 186.6267 173.4721 14.15312862715933
COSMOS 2242             
1 22626U 93024A   26166.44277168  .00001461  00000+0  12477-3 0  9991
2 22626  82.5180 173.2118 0015514 342.4446  17.6238 14.96898533795015
SL-16 R/B               
1 22803U 93059B   26166.44308451  .00000055  00000+0  50832-4 0  9992
2 22803  70.9887 164.9817 0015158  56.9481 303.3096 14.17248127693385
ARIANE 40 R/B           
1 22830U 93061H   26166.18037982  .00000158  00000+0  73702-4 0  9999
2 22830  98.4819 233.0790 0010585   2.3147 357.8084 14.32907143708066
COSMOS 2278             
1 23087U 94023A   26166.54957019  .00000149  00000+0  10252-3 0  9995
2 23087  71.0549 330.3512 0010607 245.1615 114.8405 14.14397682658640
SL-16 R/B               
1 23088U 94023B   26166.48137645  .00000315  00000+0  18726-3 0  9993
2 23088  70.9994 225.5137 0002885 187.8481 172.2597 14.15024244659927
SL-16 R/B               
1 23343U 94074B   26166.53541413  .00000343  00000+0  52408-4 0  9998
2 23343  97.6992 193.3252 0005090 260.6500 220.4125 14.79501090701715
SL-16 R/B               
1 23405U 94077B   26166.35413566 -.00000009  00000+0  19916-4 0  9994
2 23405  70.9808 147.0187 0002846 329.2012  30.8943 14.15571762630055
ARIANE 40+ R/B          
1 23561U 95021B   26166.17673197  .00000218  00000+0  83276-4 0  9996
2 23561  98.4411 236.2806 0006313 199.8513 214.4832 14.39832278633274
SL-16 R/B               
1 23705U 95058B   26166.50717596  .00000271  00000+0  16272-3 0  9995
2 23705  71.0219 334.8857 0013678 322.8305  37.1870 14.15507499581695
